IRIDIUM 171             
1 43929U 19002H   25199.52827402  .00000019  00000+0 -45266-6 0  9994
2 43929  86.4010 133.3417 0001884  90.6256 269.5156 14.34217802341137
IRIDIUM 170             
1 43930U 19002J   25200.32730522  .00000704  00000+0  10779-3 0  9991
2 43930  86.6125 132.7561 0002227  79.5962 280.5506 14.72259408350281
IRIDIUM 167             
1 43931U 19002K   25200.35915376  .00000032  00000+0  42995-5 0  9998
2 43931  86.4001 132.7451 0001813  84.8883 275.2520 14.34217878341259
IRIDIUM 181             
1 56726U 23068S   25200.46403433  .00000165  00000+0  42878-4 0  9995
2 56726  86.4524 195.7584 0002277 103.8428 256.3026 14.43310528114449
IRIDIUM 177             
1 56727U 23068T   25200.18185778  .00000966  00000+0  12360-3 0  9995
2 56727  86.1993 126.9490 0002235  90.1017 270.0460 14.80230442117103
IRIDIUM 174             
1 56728U 23068U   25199.77121438  .00000752  00000+0  11537-3 0  9999
2 56728  86.6132 133.1017 0003027  77.6601 282.4955 14.72252505116962
IRIDIUM 178             
1 56729U 23068V   25199.42734089  .00000868  00000+0  11084-3 0  9999
2 56729  86.6589 164.8005 0002688  85.2804 274.8724 14.80236170116990
IRIDIUM 179             
1 56730U 23068W   25199.89518535  .00000998  00000+0  12794-3 0  9991
2 56730  86.6826 172.5699 0002431  87.0950 273.0550 14.80233733117068
